FENGYUN 1C DEB          
1 31547U 99025BYN 17346.31906110  .00000628  00000-0  37746-3 0  9993
2 31547  99.0196 299.2756 0065069 207.7355 152.0339 14.09500673546318
